ONEWEB-0361             
1 49287U 21090J   23318.70409927 -.00008264  00000+0 -20364-1 0  9994
2 49287  87.9164 102.6669 0001955  77.9074 282.2278 13.20812078105493
ONEWEB-0362             
1 49288U 21090K   23318.74182240 -.00000058  00000+0 -17601-3 0  9990
2 49288  87.9168 133.1715 0001175  96.7318 263.3949 13.19726580102215
ONEWEB-0363             
1 49289U 21090L   23318.64517714  .00000030  00000+0  40752-4 0  9990
2 49289  87.9162 102.6751 0001988  91.5666 268.5695 13.20772615105492
ONEWEB-0364             
1 49290U 21090M   23318.68306680  .00001452  00000+0  35396-2 0  9999
2 49290  87.9173 102.6846 0001395  89.8466 270.2827 13.20764838106633
ONEWEB-0365             
1 49291U 21090N   23318.75128899  .00000067  00000+0  13399-3 0  9993
2 49291  87.9171 133.1593 0001383  89.5942 270.5350 13.19727241101727
ONEWEB-0366             
1 49292U 21090P   23318.74853845  .00000286  00000+0  73820-3 0  9997
2 49292  87.8943 117.9151 0001514  83.4712 276.6590 13.14501606103352
ONEWEB-0367             
1 49293U 21090Q   23318.49155272  .00000040  00000+0  65497-4 0  9999
2 49293  87.9160 102.6991 0001473  84.9831 275.1470 13.20773132104994
ONEWEB-0368             
1 49294U 21090R   23318.69146647 -.00000047  00000+0 -14737-3 0  9997
2 49294  87.9173 102.6829 0001939  67.3322 292.8017 13.20772017106172
